OBJECT_NAME,OBJECT_ID,EPOCH,MEAN_MOTION,ECCENTRICITY,INCLINATION,RA_OF_ASC_NODE,ARG_OF_PERICENTER,MEAN_ANOMALY,EPHEMERIS_TYPE,CLASSIFICATION_TYPE,NORAD_CAT_ID,ELEMENT_SET_NO,REV_AT_EPOCH,BSTAR,MEAN_MOTION_DOT,MEAN_MOTION_DDOT
INTELSAT 23 (IS-23),2012-057A,2026-07-11T20:09:02.246976,1.00274462,.00002362,0.0143,31.7549,152.6162,354.6151,0,U,38867,999,5020,0,-.281E-5,0
FM-6,2013-058A,2026-07-11T16:25:35.615136,1.00270766,.00012731,0.0158,50.9126,129.5499,239.1665,0,U,39360,999,4631,0,-.11E-6,0
INTELSAT 30 (IS-30),2014-062A,2026-07-11T19:57:03.396384,1.00271720,.00013682,0.0177,48.7867,332.6147,112.5503,0,U,40271,999,704,0,-.147E-5,0
DIRECTV 14,2014-078B,2026-07-11T19:55:41.027808,1.00269938,.00002741,0.0111,39.8160,268.1246,181.4680,0,U,40333,999,4229,0,-.121E-5,0
DIRECTV 15,2015-026A,2026-07-11T19:54:48.610656,1.00270532,.00002074,0.0189,71.1042,222.9242,191.5327,0,U,40663,999,4071,0,-.98E-6,0
SKY MEXICO-1,2015-026B,2026-07-11T20:01:40.452672,1.00270928,.00023069,0.0136,5.7441,128.8513,16.7610,0,U,40664,999,4070,0,-.23E-5,0
INTELSAT 34 (IS-34),2015-039A,2026-07-11T20:08:17.318976,1.00271989,.0000383,0.0109,3.9323,341.4714,190.9193,0,U,40874,999,3988,0,-.281E-5,0
INTELSAT 31 (IS-31),2016-035A,2026-07-11T19:57:03.396384,1.00270831,.00011341,0.0182,284.5667,357.7820,211.5987,0,U,41581,999,3693,0,-.146E-5,0
INTELSAT 36 (IS-36),2016-053A,2026-07-11T12:14:38.597280,1.00269566,.00025136,0.0105,355.6291,345.6309,200.3095,0,U,41747,999,3620,0,-.18E-6,0
INTELSAT 32E (IS-32E),2017-007B,2026-07-11T20:11:46.984128,1.00270600,.00004627,0.0258,38.9305,266.3977,244.1878,0,U,41945,999,3447,0,0,0
INTELSAT 35E (IS-35E),2017-041A,2026-07-11T18:31:41.047104,1.00270104,.00015933,0.0180,37.3085,72.2043,63.5883,0,U,42818,999,3306,0,-.234E-5,0
INTELSAT 37E (IS-37E),2017-059A,2026-07-11T20:19:03.115776,1.00270571,.00024915,0.0138,61.5341,56.4889,98.4865,0,U,42950,999,3231,0,-.137E-5,0
AZERSPACE 2 (IS-38),2018-074A,2026-07-11T05:13:02.871840,1.00270656,.0001235,0.0273,38.7820,92.2329,281.4917,0,U,43632,999,2868,0,0,0
HORIZONS-3E,2018-074B,2026-07-11T17:47:00.329856,1.00271927,.00008565,0.0414,220.4493,61.4867,83.4617,0,U,43633,999,2858,0,-.26E-6,0
AT&T T-16,2019-034A,2026-07-11T19:55:11.074656,1.00269960,.00008747,0.0123,64.3040,263.5194,159.8474,0,U,44333,999,2588,0,-.111E-5,0
INTELSAT 39 (IS-39),2019-049B,2026-07-11T10:25:53.855904,1.00270150,.00008894,0.0278,39.2819,281.8876,186.5962,0,U,44476,999,2537,0,0,0
GALAXY 30 (G-30),2020-056C,2026-07-11T18:05:51.023328,1.00270605,.00019319,0.0298,46.6859,69.9246,319.5079,0,U,46114,999,2153,0,0,0
GALAXY 33 (G-33),2022-128A,2026-07-11T16:20:51.069696,1.00270934,.00017635,0.0122,32.2314,86.9299,282.6342,0,U,54026,999,1398,0,.84E-6,0
GALAXY 34 (G-34),2022-128B,2026-07-11T00:58:08.413824,1.00269972,.00013492,0.0112,37.5715,92.1383,44.7761,0,U,54027,999,1415,0,.67E-6,0
GALAXY 31 (G-31),2022-153A,2026-07-11T16:24:20.734848,1.00270051,.00009183,0.0240,56.8389,61.9689,295.8604,0,U,54243,999,737,0,0,0
GALAXY 32 (G-32),2022-153B,2026-07-11T06:16:55.034976,1.00271069,.00014569,0.0115,41.9388,4.2849,246.1793,0,U,54244,999,1338,0,-.167E-5,0
GALAXY 35 (G-35),2022-170A,2026-07-11T19:57:25.860384,1.00269280,.00018634,0.0204,48.3005,68.9556,18.7328,0,U,54741,999,1314,0,0,0
GALAXY 36 (G-36),2022-170B,2026-07-11T19:58:48.228096,1.00271128,.000236,0.0281,111.5754,348.2212,40.6410,0,U,54742,999,1302,0,-.181E-5,0
GALAXY 37 (G-37),2023-112A,2026-07-11T16:22:35.902272,1.00270663,.00017457,0.0152,66.1275,49.8835,292.2202,0,U,57493,999,1078,0,.53E-6,0
